[{"OBJECT_NAME":"SHIYAN-4 (SY-4)","OBJECT_ID":"2011-068B","EPOCH":"2026-03-09T23:00:28.675872","MEAN_MOTION":14.31088676,"ECCENTRICITY":0.00240064,"INCLINATION":98.7036,"RA_OF_ASC_NODE":87.8563,"ARG_OF_PERICENTER":77.8488,"MEAN_ANOMALY":342.0096,"EPHEMERIS_TYPE":0,"CLASSIFICATION_TYPE":"U","NORAD_CAT_ID":37931,"ELEMENT_SET_NO":999,"REV_AT_EPOCH":74470,"BSTAR":0.00010117128,"MEAN_MOTION_DOT":2.23e-6,"MEAN_MOTION_DDOT":0},{"OBJECT_NAME":"OPS 6983 (DMSP 5B F6)","OBJECT_ID":"1974-063A","EPOCH":"2026-03-09T13:17:19.336992","MEAN_MOTION":14.29627844,"ECCENTRICITY":0.00400232,"INCLINATION":98.5245,"RA_OF_ASC_NODE":272.7257,"ARG_OF_PERICENTER":301.9235,"MEAN_ANOMALY":57.8058,"EPHEMERIS_TYPE":0,"CLASSIFICATION_TYPE":"U","NORAD_CAT_ID":7411,"ELEMENT_SET_NO":999,"REV_AT_EPOCH":68013,"BSTAR":0.00015448362,"MEAN_MOTION_DOT":3.56e-6,"MEAN_MOTION_DDOT":0}]
